start=new Date('2023-06-05T00:00:00.000Z').valueOf();
sats=[{"CENTER_NAME":"EARTH","SITE":"AFWTR","PERIOD":"95.919","REV_AT_EPOCH":"5009","NORAD_CAT_ID":"53082","OBJECT_NAME":"STARLINK-4321","FILE":"3924932","COUNTRY_CODE":"US","OBJECT_TYPE":"PAYLOAD","PERIAPSIS":"560.399","ELEMENT_SET_NO":"999","DECAY_DATE":null,"REF_FRAME":"TEME","RA_OF_ASC_NODE":"336.7800","INCLINATION":"97.6563","GP_ID":"233188933","TLE_LINE2":"2 53082  97.6563 336.7800 0003762 148.4219 211.7231 15.01260499 50098","TLE_LINE1":"1 53082U 22077AR  23155.53702566 -.00001545  00000-0 -11567-3 0  9996","TIME_SYSTEM":"UTC","APOAPSIS":"565.622","RCS_SIZE":"LARGE","MEAN_MOTION_DOT":"-0.00001545","EPHEMERIS_TYPE":"0","ECCENTRICITY":"0.00037620","BSTAR":"-0.00011567000000","LAUNCH_DATE":"2022-07-11","MEAN_MOTION_DDOT":"0.0000000000000","ARG_OF_PERICENTER":"148.4219","CLASSIFICATION_TYPE":"U","MEAN_ANOMALY":"211.7231","MEAN_MOTION":"15.01260499","SEMIMAJOR_AXIS":"6941.145","EPOCH":"2023-06-04T12:53:19.017024","OBJECT_ID":"2022-077AR","MEAN_ELEMENT_THEORY":"SGP4"},{"BSTAR":"0.00011413000000","ECCENTRICITY":"0.00029360","LAUNCH_DATE":"2022-07-11","MEAN_MOTION_DDOT":"0.0000000000000","ARG_OF_PERICENTER":"77.1769","CLASSIFICATION_TYPE":"U","MEAN_ANOMALY":"282.9783","MEAN_MOTION":"15.01261355","EPOCH":"2023-06-04T12:34:38.656992","SEMIMAJOR_AXIS":"6941.143","OBJECT_ID":"2022-077AS","MEAN_ELEMENT_THEORY":"SGP4","TIME_SYSTEM":"UTC","TLE_LINE1":"1 53083U 22077AS  23155.52405853  .00001407  00000-0  11413-3 0  9990","APOAPSIS":"565.046","RCS_SIZE":"LARGE","MEAN_MOTION_DOT":"0.00001407","EPHEMERIS_TYPE":"0","OBJECT_NAME":"STARLINK-4251","FILE":"3925094","COUNTRY_CODE":"US","OBJECT_TYPE":"PAYLOAD","PERIAPSIS":"560.970","ELEMENT_SET_NO":"999","DECAY_DATE":null,"REF_FRAME":"TEME","RA_OF_ASC_NODE":"336.7798","INCLINATION":"97.6589","GP_ID":"233193179","TLE_LINE2":"2 53083  97.6589 336.7798 0002936  77.1769 282.9783 15.01261355 50097","CENTER_NAME":"EARTH","SITE":"AFWTR","PERIOD":"95.919","REV_AT_EPOCH":"5009","NORAD_CAT_ID":"53083"},{"INCLINATION":"97.6566","DECAY_DATE":null,"RA_OF_ASC_NODE":"336.7785","REF_FRAME":"TEME","TLE_LINE2":"2 53084  97.6566 336.7785 0003823 135.7234 224.4297 15.01262319 50095","GP_ID":"233189748","FILE":"3924934","OBJECT_NAME":"STARLINK-4319","PERIAPSIS":"560.351","ELEMENT_SET_NO":"999","OBJECT_TYPE":"PAYLOAD","COUNTRY_CODE":"US","PERIOD":"95.919","NORAD_CAT_ID":"53084","REV_AT_EPOCH":"5009","SITE":"AFWTR","CENTER_NAME":"EARTH","MEAN_MOTION":"15.01262319","EPOCH":"2023-06-04T12:50:38.373504","SEMIMAJOR_AXIS":"6941.140","ARG_OF_PERICENTER":"135.7234","CLASSIFICATION_TYPE":"U","MEAN_ANOMALY":"224.4297","MEAN_ELEMENT_THEORY":"SGP4","OBJECT_ID":"2022-077AT","ECCENTRICITY":"0.00038230","BSTAR":"0.00006744300000","LAUNCH_DATE":"2022-07-11","MEAN_MOTION_DDOT":"0.0000000000000","EPHEMERIS_TYPE":"0","RCS_SIZE":"LARGE","MEAN_MOTION_DOT":"0.00000807","TLE_LINE1":"1 53084U 22077AT  23155.53516636  .00000807  00000-0  67443-4 0  9992","TIME_SYSTEM":"UTC","APOAPSIS":"565.658"},{"TIME_SYSTEM":"UTC","TLE_LINE1":"1 53085U 22077AU  23155.46320617  .00000193  00000-0  19597-4 0  9992","APOAPSIS":"563.782","EPHEMERIS_TYPE":"0","MEAN_MOTION_DOT":"0.00000193","RCS_SIZE":"LARGE","BSTAR":"0.00001959700000","ECCENTRICITY":"0.00011160","MEAN_MOTION_DDOT":"0.0000000000000","LAUNCH_DATE":"2022-07-11","EPOCH":"2023-06-04T11:07:01.013088","SEMIMAJOR_AXIS":"6941.142","MEAN_MOTION":"15.01261591","CLASSIFICATION_TYPE":"U","MEAN_ANOMALY":"263.6184","ARG_OF_PERICENTER":"96.5167","MEAN_ELEMENT_THEORY":"SGP4","OBJECT_ID":"2022-077AU","SITE":"AFWTR","CENTER_NAME":"EARTH","PERIOD":"95.919","NORAD_CAT_ID":"53085","REV_AT_EPOCH":"4950","FILE":"3924842","OBJECT_NAME":"STARLINK-4324","ELEMENT_SET_NO":"999","PERIAPSIS":"562.232","OBJECT_TYPE":"PAYLOAD","COUNTRY_CODE":"US","INCLINATION":"97.6579","REF_FRAME":"TEME","RA_OF_ASC_NODE":"336.7145","DECAY_DATE":null,"TLE_LINE2":"2 53085  97.6579 336.7145 0001116  96.5167 263.6184 15.01261591 49507","GP_ID":"233183085"},{"CENTER_NAME":"EARTH","SITE":"AFWTR","PERIOD":"95.919","REV_AT_EPOCH":"5009","NORAD_CAT_ID":"53086","OBJECT_NAME":"STARLINK-4318","FILE":"3924932","COUNTRY_CODE":"US","OBJECT_TYPE":"PAYLOAD","ELEMENT_SET_NO":"999","PERIAPSIS":"560.690","REF_FRAME":"TEME","RA_OF_ASC_NODE":"336.7769","DECAY_DATE":null,"INCLINATION":"97.6567","GP_ID":"233188935","TLE_LINE2":"2 53086  97.6567 336.7769 0003331 132.0773 228.0735 15.01263027 50096","TLE_LINE1":"1 53086U 22077AV  23155.53331403  .00000984  00000-0  81196-4 0  9998","TIME_SYSTEM":"UTC","APOAPSIS":"565.315","MEAN_MOTION_DOT":"0.00000984","RCS_SIZE":"LARGE","EPHEMERIS_TYPE":"0","ECCENTRICITY":"0.00033310","BSTAR":"0.00008119600000","MEAN_MOTION_DDOT":"0.0000000000000","LAUNCH_DATE":"2022-07-11","CLASSIFICATION_TYPE":"U","MEAN_ANOMALY":"228.0735","ARG_OF_PERICENTER":"132.0773","EPOCH":"2023-06-04T12:47:58.332192","SEMIMAJOR_AXIS":"6941.138","MEAN_MOTION":"15.01263027","OBJECT_ID":"2022-077AV","MEAN_ELEMENT_THEORY":"SGP4"},{"TLE_LINE1":"1 53087U 22077AW  23155.53148238  .00007017  00000-0  55035-3 0  9997","TIME_SYSTEM":"UTC","APOAPSIS":"563.712","RCS_SIZE":"LARGE","MEAN_MOTION_DOT":"0.00007017","EPHEMERIS_TYPE":"0","ECCENTRICITY":"0.00010240","BSTAR":"0.00055035000000","LAUNCH_DATE":"2022-07-11","MEAN_MOTION_DDOT":"0.0000000000000","ARG_OF_PERICENTER":"178.9921","MEAN_ANOMALY":"181.1306","CLASSIFICATION_TYPE":"U","MEAN_MOTION":"15.01263314","SEMIMAJOR_AXIS":"6941.137","EPOCH":"2023-06-04T12:45:20.077632","OBJECT_ID":"2022-077AW","MEAN_ELEMENT_THEORY":"SGP4","CENTER_NAME":"EARTH","SITE":"AFWTR","PERIOD":"95.919","REV_AT_EPOCH":"4951","NORAD_CAT_ID":"53087","OBJECT_NAME":"STARLINK-4329","FILE":"3924842","COUNTRY_CODE":"US","OBJECT_TYPE":"PAYLOAD","PERIAPSIS":"562.291","ELEMENT_SET_NO":"999","DECAY_DATE":null,"RA_OF_ASC_NODE":"336.7684","REF_FRAME":"TEME","INCLINATION":"97.6564","GP_ID":"233184087","TLE_LINE2":"2 53087  97.6564 336.7684 0001024 178.9921 181.1306 15.01263314 49518"},{"PERIOD":"95.919","REV_AT_EPOCH":"4950","NORAD_CAT_ID":"53088","CENTER_NAME":"EARTH","SITE":"AFWTR","DECAY_DATE":null,"REF_FRAME":"TEME","RA_OF_ASC_NODE":"336.7106","INCLINATION":"97.6579","GP_ID":"233184837","TLE_LINE2":"2 53088  97.6579 336.7106 0003553  93.2437 266.9193 15.01261102 49502","OBJECT_NAME":"STARLINK-4333","FILE":"3924842","OBJECT_TYPE":"PAYLOAD","COUNTRY_CODE":"US","PERIAPSIS":"560.542","ELEMENT_SET_NO":"999","RCS_SIZE":"LARGE","MEAN_MOTION_DOT":"0.00000647","EPHEMERIS_TYPE":"0","TIME_SYSTEM":"UTC","TLE_LINE1":"1 53088U 22077AX  23155.46296444  .00000647  00000-0  55005-4 0  9993","APOAPSIS":"565.475","ARG_OF_PERICENTER":"93.2437","CLASSIFICATION_TYPE":"U","MEAN_ANOMALY":"266.9193","MEAN_MOTION":"15.01261102","SEMIMAJOR_AXIS":"6941.143","EPOCH":"2023-06-04T11:06:40.127616","OBJECT_ID":"2022-077AX","MEAN_ELEMENT_THEORY":"SGP4","ECCENTRICITY":"0.00035530","BSTAR":"0.00005500500000","LAUNCH_DATE":"2022-07-11","MEAN_MOTION_DDOT":"0.0000000000000"},{"APOAPSIS":"540.510","TIME_SYSTEM":"UTC","TLE_LINE1":"1 53132U 22083A   23155.89725563  .00000540  00000-0  52009-4 0  9999","EPHEMERIS_TYPE":"0","RCS_SIZE":"LARGE","MEAN_MOTION_DOT":"0.00000540","LAUNCH_DATE":"2022-07-17","MEAN_MOTION_DDOT":"0.0000000000000","BSTAR":"0.00005200900000","ECCENTRICITY":"0.00011180","MEAN_ELEMENT_THEORY":"SGP4","OBJECT_ID":"2022-083A","MEAN_MOTION":"15.08842731","SEMIMAJOR_AXIS":"6917.872","EPOCH":"2023-06-04T21:32:02.886432","ARG_OF_PERICENTER":"98.7860","CLASSIFICATION_TYPE":"U","MEAN_ANOMALY":"261.3259","SITE":"AFETR","CENTER_NAME":"EARTH","NORAD_CAT_ID":"53132","REV_AT_EPOCH":"4892","PERIOD":"95.437","PERIAPSIS":"538.964","ELEMENT_SET_NO":"999","OBJECT_TYPE":"PAYLOAD","COUNTRY_CODE":"US","FILE":"3925173","OBJECT_NAME":"STARLINK-4063","TLE_LINE2":"2 53132  53.2190  22.7609 0001118  98.7860 261.3259 15.08842731 48921","GP_ID":"233218931","INCLINATION":"53.2190","DECAY_DATE":null,"REF_FRAME":"TEME","RA_OF_ASC_NODE":"22.7609"},{"TLE_LINE2":"2 53133  53.2172  22.6849 0001203  86.7981 273.3148 15.08846900 48914","GP_ID":"233217679","INCLINATION":"53.2172","DECAY_DATE":null,"REF_FRAME":"TEME","RA_OF_ASC_NODE":"22.6849","PERIAPSIS":"538.892","ELEMENT_SET_NO":"999","OBJECT_TYPE":"PAYLOAD","COUNTRY_CODE":"US","FILE":"3925173","OBJECT_NAME":"STARLINK-4154","NORAD_CAT_ID":"53133","REV_AT_EPOCH":"4891","PERIOD":"95.437","SITE":"AFETR","CENTER_NAME":"EARTH","MEAN_ELEMENT_THEORY":"SGP4","OBJECT_ID":"2022-083B","MEAN_MOTION":"15.08846900","SEMIMAJOR_AXIS":"6917.859","EPOCH":"2023-06-04T21:58:32.643840","ARG_OF_PERICENTER":"86.7981","CLASSIFICATION_TYPE":"U","MEAN_ANOMALY":"273.3148","LAUNCH_DATE":"2022-07-17","MEAN_MOTION_DDOT":"0.0000000000000","ECCENTRICITY":"0.00012030","BSTAR":"0.00017780000000","EPHEMERIS_TYPE":"0","RCS_SIZE":"LARGE","MEAN_MOTION_DOT":"0.00002543","APOAPSIS":"540.557","TIME_SYSTEM":"UTC","TLE_LINE1":"1 53133U 22083B   23155.91565560  .00002543  00000-0  17780-3 0  9993"},{"BSTAR":"0.00009195600000","ECCENTRICITY":"0.00011820","MEAN_MOTION_DDOT":"0.0000000000000","LAUNCH_DATE":"2022-07-17","CLASSIFICATION_TYPE":"U","MEAN_ANOMALY":"257.9727","ARG_OF_PERICENTER":"102.1398","EPOCH":"2023-06-04T21:42:38.282400","SEMIMAJOR_AXIS":"6917.862","MEAN_MOTION":"15.08845978","OBJECT_ID":"2022-083C","MEAN_ELEMENT_THEORY":"SGP4","TIME_SYSTEM":"UTC","TLE_LINE1":"1 53134U 22083C   23155.90460975  .00001176  00000-0  91956-4 0  9996","APOAPSIS":"540.545","MEAN_MOTION_DOT":"0.00001176","RCS_SIZE":"LARGE","EPHEMERIS_TYPE":"0","OBJECT_NAME":"STARLINK-4150","FILE":"3925173","COUNTRY_CODE":"US","OBJECT_TYPE":"PAYLOAD","ELEMENT_SET_NO":"999","PERIAPSIS":"538.909","RA_OF_ASC_NODE":"22.7285","REF_FRAME":"TEME","DECAY_DATE":null,"INCLINATION":"53.2180","GP_ID":"233217929","TLE_LINE2":"2 53134  53.2180  22.7285 0001182 102.1398 257.9727 15.08845978 48926","CENTER_NAME":"EARTH","SITE":"AFETR","PERIOD":"95.437","REV_AT_EPOCH":"4892","NORAD_CAT_ID":"53134"}];
